NORAD_CAT_ID,OBJECT_NAME,OBJECT_TYPE,EPOCH,MEAN_MOTION,ECCENTRICITY,INCLINATION,RA_OF_ASC_NODE,ARG_OF_PERICENTER,MEAN_ANOMALY,BSTAR,MEAN_MOTION_DOT,MEAN_MOTION_DDOT,TLE_LINE0,TLE_LINE1,TLE_LINE2,SEMIMAJOR_AXIS,PERIOD,APOGEE,PERIGEE,DECAYED
49177.0,STARLINK-3103,PAYLOAD,2023-10-16 10:27:54,14.98332636,0.0002918,69.9975,301.2878,268.7638,91.3187,2.6898e-05,2.28e-06,0.0,0 STARLINK-3103,1 49177U 21082AZ  23289.43604680  .00000228  00000-0  26898-4 0  9995,2 49177  69.9975 301.2878 0002918 268.7638  91.3187 14.98332636117052,6950.185,96.107,574.078,570.022,0.0
49177.0,STARLINK-3103,PAYLOAD,2023-10-17 10:29:55,14.98331666,0.0002886,69.9974,298.7627,268.6234,91.4595,0.00020049,2.3e-05,0.0,0 STARLINK-3103,1 49177U 21082AZ  23290.43744399  .00002300  00000-0  20049-3 0  9993,2 49177  69.9974 298.7627 0002886 268.6234  91.4595 14.98331666117201,6950.188,96.107,574.059,570.047,0.0
49177.0,STARLINK-3103,PAYLOAD,2023-10-18 02:31:16,14.98328575,0.0002934,69.9988,297.0797,271.4028,88.6795,6.4208e-06,-1.6e-07,0.0,0 STARLINK-3103,1 49177U 21082AZ  23291.10505060 -.00000016  00000-0  64208-5 0  9998,2 49177  69.9988 297.0797 0002934 271.4028  88.6795 14.98328575117309,6950.197,96.107,574.101,570.023,0.0
49177.0,STARLINK-3103,PAYLOAD,2023-10-18 10:31:57,14.98306932,0.000256,69.9994,296.2376,275.0348,85.0519,0.00023741,2.739e-05,0.0,0 STARLINK-3103,1 49177U 21082AZ  23291.43886020  .00002739  00000-0  23741-3 0  9990,2 49177  69.9994 296.2376 0002560 275.0348  85.0519 14.98306932117353,6950.264,96.108,573.908,570.35,0.0
49177.0,STARLINK-3103,PAYLOAD,2023-10-19 04:09:24,14.98334954,0.000282,69.9981,294.385,272.673,87.4107,4.621e-05,4.58e-06,0.0,0 STARLINK-3103,1 49177U 21082AZ  23292.17320455  .00000458  00000-0  46210-4 0  9990,2 49177  69.9981 294.3850 0002820 272.6730  87.4107 14.98334954117468,6950.178,96.107,574.003,570.083,0.0
49177.0,STARLINK-3103,PAYLOAD,2023-10-19 10:33:56,14.98336882,0.0002806,69.9984,293.7116,276.3393,83.7447,8.9555e-05,9.76e-06,0.0,0 STARLINK-3103,1 49177U 21082AZ  23292.44024181  .00000976  00000-0  89555-4 0  9991,2 49177  69.9984 293.7116 0002806 276.3393  83.7447 14.98336882117502,6950.172,96.107,573.987,570.086,0.0
49177.0,STARLINK-3103,PAYLOAD,2023-10-19 16:58:28,14.98358589,0.0002751,69.9986,293.0377,278.0353,82.0494,-0.0003851,-4.688e-05,0.0,0 STARLINK-3103,1 49177U 21082AZ  23292.70727592 -.00004688  00000-0 -38510-3 0  9996,2 49177  69.9986 293.0377 0002751 278.0353  82.0494 14.98358589117546,6950.104,96.105,573.881,570.058,0.0
49177.0,STARLINK-3103,PAYLOAD,2023-10-20 04:11:26,14.98324578,0.0002638,69.9983,291.8605,269.8749,90.2108,0.00014371,1.622e-05,0.0,0 STARLINK-3103,1 49177U 21082AZ  23293.17460662  .00001622  00000-0  14371-3 0  9992,2 49177  69.9983 291.8605 0002638 269.8749  90.2108 14.98324578117616,6950.21,96.107,573.908,570.241,0.0
49177.0,STARLINK-3103,PAYLOAD,2023-10-20 10:35:58,14.98330478,0.000274,69.9982,291.1871,268.2563,91.8282,5.4457e-05,5.57e-06,0.0,0 STARLINK-3103,1 49177U 21082AZ  23293.44164396  .00000557  00000-0  54457-4 0  9993,2 49177  69.9982 291.1871 0002740 268.2563  91.8282 14.98330478117654,6950.191,96.107,573.961,570.152,0.0
49177.0,STARLINK-3103,PAYLOAD,2023-10-21 10:37:59,14.98327671,0.0002752,69.9985,288.6623,267.2612,92.8232,2.4365e-06,-6.4e-07,0.0,0 STARLINK-3103,1 49177U 21082AZ  23294.44304728 -.00000064  00000-0  24365-5 0  9999,2 49177  69.9985 288.6623 0002752 267.2612  92.8232 14.98327671117804,6950.2,96.107,573.978,570.152,0.0
49177.0,STARLINK-3103,PAYLOAD,2023-10-21 17:02:31,14.98332439,0.0002558,69.9989,287.9888,268.3298,91.7568,-7.4342e-06,-1.82e-06,0.0,0 STARLINK-3103,1 49177U 21082AZ  23294.71008480 -.00000182  00000-0 -74342-5 0  9997,2 49177  69.9989 287.9888 0002558 268.3298  91.7568 14.98332439117841,6950.185,96.107,573.828,570.272,0.0
49177.0,STARLINK-3103,PAYLOAD,2023-10-22 09:03:51,14.98333573,0.0002964,69.9978,286.3054,268.4071,91.6748,0.0001053,1.164e-05,0.0,0 STARLINK-3103,1 49177U 21082AZ  23295.37767959  .00001164  00000-0  10530-3 0  9999,2 49177  69.9978 286.3054 0002964 268.4071  91.6748 14.98333573117948,6950.182,96.107,574.107,569.987,0.0
49177.0,STARLINK-3103,PAYLOAD,2023-10-23 04:17:29,14.98315325,0.000301,69.9985,284.284,272.6168,87.4646,-5.5757e-05,-7.58e-06,0.0,0 STARLINK-3103,1 49177U 21082AZ  23296.17881598 -.00000758  00000-0 -55757-4 0  9995,2 49177  69.9985 284.2840 0003010 272.6168  87.4646 14.98315325118062,6950.238,96.108,574.195,570.011,0.0
49177.0,STARLINK-3103,PAYLOAD,2023-10-23 09:05:53,14.98324388,0.0002637,69.9983,283.7786,258.3663,101.72,4.3171e-05,4.22e-06,0.0,0 STARLINK-3103,1 49177U 21082AZ  23296.37908765  .00000422  00000-0  43171-4 0  9996,2 49177  69.9983 283.7786 0002637 258.3663 101.7200 14.98324388118096,6950.21,96.107,573.908,570.242,0.0
49177.0,STARLINK-3103,PAYLOAD,2023-10-24 04:19:29,14.98334158,0.0002674,69.9985,281.7587,266.515,93.5704,2.7626e-05,2.37e-06,0.0,0 STARLINK-3103,1 49177U 21082AZ  23297.18020131  .00000237  00000-0  27626-4 0  9999,2 49177  69.9985 281.7587 0002674 266.5150  93.5704 14.98334158118215,6950.18,96.107,573.904,570.187,0.0
49177.0,STARLINK-3103,PAYLOAD,2023-10-24 09:07:53,14.98339415,0.0002982,69.9977,281.2543,269.6637,90.4181,5.2617e-05,5.35e-06,0.0,0 STARLINK-3103,1 49177U 21082AZ  23297.38047647  .00000535  00000-0  52617-4 0  9991,2 49177  69.9977 281.2543 0002982 269.6637  90.4181 14.98339415118248,6950.164,96.106,574.101,569.956,0.0
49177.0,STARLINK-3103,PAYLOAD,2023-10-25 09:09:54,14.98328574,0.0002792,69.9986,278.7292,267.9441,92.1398,0.0001412,1.592e-05,0.0,0 STARLINK-3103,1 49177U 21082AZ  23298.38188065  .00001592  00000-0  14120-3 0  9992,2 49177  69.9986 278.7292 0002792 267.9441  92.1398 14.98328574118392,6950.197,96.107,574.003,570.122,0.0
49177.0,STARLINK-3103,PAYLOAD,2023-10-26 09:11:55,14.98331024,0.0002509,69.9995,276.2051,263.9123,96.175,-2.1006e-06,-1.18e-06,0.0,0 STARLINK-3103,1 49177U 21082AZ  23299.38328229 -.00000118  00000-0 -21006-5 0  9999,2 49177  69.9995 276.2051 0002509 263.9123  96.1750 14.98331024118544,6950.19,96.107,573.799,570.311,0.0
49177.0,STARLINK-3103,PAYLOAD,2023-10-27 07:37:47,14.98335027,0.0002684,69.9989,273.8484,263.4157,96.6697,7.0138e-05,7.44e-06,0.0,0 STARLINK-3103,1 49177U 21082AZ  23300.31791566  .00000744  00000-0  70138-4 0  9995,2 49177  69.9989 273.8484 0002684 263.4157  96.6697 14.98335027118683,6950.177,96.107,573.908,570.177,0.0
49177.0,STARLINK-3103,PAYLOAD,2023-10-27 15:38:28,14.98330602,0.0002434,69.9991,273.0064,274.439,85.6491,5.6621e-06,-2.5e-07,0.0,0 STARLINK-3103,1 49177U 21082AZ  23300.65172112 -.00000025  00000-0  56621-5 0  9997,2 49177  69.9991 273.0064 0002434 274.4390  85.6491 14.98330602118736,6950.191,96.107,573.748,570.364,0.0
49177.0,STARLINK-3103,PAYLOAD,2023-10-27 22:03:00,14.98329735,0.00026,69.9992,272.3329,275.1298,84.9564,4.4224e-05,4.35e-06,0.0,0 STARLINK-3103,1 49177U 21082AZ  23300.91876011  .00000435  00000-0  44224-4 0  9994,2 49177  69.9992 272.3329 0002600 275.1298  84.9564 14.98329735118775,6950.194,96.107,573.866,570.252,0.0
49177.0,STARLINK-3103,PAYLOAD,2023-10-28 07:39:49,14.98327559,0.0002811,69.9988,271.3248,269.2972,90.7864,-4.4489e-05,-6.24e-06,0.0,0 STARLINK-3103,1 49177U 21082AZ  23301.31932469 -.00000624  00000-0 -44489-4 0  9994,2 49177  69.9988 271.3248 0002811 269.2972  90.7864 14.98327559118833,6950.2,96.107,574.019,570.112,0.0
49177.0,STARLINK-3103,PAYLOAD,2023-10-28 15:40:29,14.98329011,0.0002851,69.9988,270.482,269.438,90.6452,1.9016e-07,-9.1e-07,0.0,0 STARLINK-3103,1 49177U 21082AZ  23301.65312241 -.00000091  00000-0  19016-6 0  9998,2 49177  69.9988 270.4820 0002851 269.4380  90.6452 14.98329011118880,6950.196,96.107,574.042,570.079,0.0
49177.0,STARLINK-3103,PAYLOAD,2023-10-28 22:05:01,14.98330524,0.0003011,69.9987,269.808,271.0806,89.0008,4.1188e-05,3.98e-06,0.0,0 STARLINK-3103,1 49177U 21082AZ  23301.92016050  .00000398  00000-0  41188-4 0  9999,2 49177  69.9987 269.8080 0003011 271.0806  89.0008 14.98330524118925,6950.191,96.107,574.149,569.964,0.0
49177.0,STARLINK-3103,PAYLOAD,2023-10-29 04:29:33,14.98335842,0.0002982,69.9986,269.1344,269.7693,90.3125,9.8748e-05,1.086e-05,0.0,0 STARLINK-3103,1 49177U 21082AZ  23302.18719593  .00001086  00000-0  98748-4 0  9999,2 49177  69.9986 269.1344 0002982 269.7693  90.3125 14.98335842118961,6950.175,96.107,574.112,569.967,0.0
49177.0,STARLINK-3103,PAYLOAD,2023-10-29 07:41:49,14.98336048,0.0002933,69.9988,268.7979,269.7145,90.3677,0.00010706,1.185e-05,0.0,0 STARLINK-3103,1 49177U 21082AZ  23302.32071522  .00001185  00000-0  10706-3 0  9995,2 49177  69.9988 268.7979 0002933 269.7145  90.3677 14.98336048118983,6950.174,96.107,574.078,570.001,0.0
49177.0,STARLINK-3103,PAYLOAD,2023-10-29 20:30:57,14.98300324,0.0002799,69.9985,267.4522,267.8115,92.2723,-0.00016653,-2.078e-05,0.0,0 STARLINK-3103,1 49177U 21082AZ  23302.85482983 -.00002078  00000-0 -16653-3 0  9991,2 49177  69.9985 267.4522 0002799 267.8115  92.2723 14.98300324119067,6950.285,96.109,574.095,570.204,0.0
49177.0,STARLINK-3103,PAYLOAD,2023-10-29 22:07:05,14.98302507,0.0002739,69.999,267.2851,265.9462,94.1384,-0.00015302,-1.917e-05,0.0,0 STARLINK-3103,1 49177U 21082AZ  23302.92158925 -.00001917  00000-0 -15302-3 0  9996,2 49177  69.9990 267.2851 0002739 265.9462  94.1384 14.98302507119074,6950.278,96.109,574.047,570.239,0.0
49177.0,STARLINK-3103,PAYLOAD,2023-10-30 04:31:37,14.98313876,0.0002739,69.9991,266.6093,264.2698,95.8149,-2.9187e-05,-4.41e-06,0.0,0 STARLINK-3103,1 49177U 21082AZ  23303.18862278 -.00000441  00000-0 -29187-4 0  9996,2 49177  69.9991 266.6093 0002739 264.2698  95.8149 14.98313876119112,6950.243,96.108,574.011,570.204,0.0
49177.0,STARLINK-3103,PAYLOAD,2023-10-30 22:09:04,14.98331165,0.0002793,69.9993,264.7583,270.4691,89.6148,8.8935e-05,9.68e-06,0.0,0 STARLINK-3103,1 49177U 21082AZ  23303.92297281  .00000968  00000-0  88935-4 0  9992,2 49177  69.9993 264.7583 0002793 270.4691  89.6148 14.98331165119222,6950.189,96.107,573.995,570.113,0.0
